{
    "links": {
        "self": "http://www.neowsapp.com/rest/v1/neo/3698505?api_key=iIulBulltgU6a56xZRHN4H3l9WmuAYTsLGpBGhQ2"
    },
    "id": "3698505",
    "neo_reference_id": "3698505",
    "name": "(2014 HD197)",
    "designation": "2014 HD197",
    "nasa_jpl_url": "http://ssd.jpl.nasa.gov/sbdb.cgi?sstr=3698505",
    "absolute_magnitude_h": 26.3,
    "estimated_diameter": {
        "kilometers": {
            "estimated_diameter_min": 0.0146067964,
            "estimated_diameter_max": 0.0326617897
        },
        "meters": {
            "estimated_diameter_min": 14.6067964271,
            "estimated_diameter_max": 32.6617897446
        },
        "miles": {
            "estimated_diameter_min": 0.0090762397,
            "estimated_diameter_max": 0.020295089
        },
        "feet": {
            "estimated_diameter_min": 47.92256199,
            "estimated_diameter_max": 107.1581062656
        }
    },
    "is_potentially_hazardous_asteroid": false,
    "close_approach_data": [
        {
            "close_approach_date": "2014-03-26",
            "close_approach_date_full": "2014-Mar-26 21:50",
            "epoch_date_close_approach": 1395870600000,
            "relative_velocity": {
                "kilometers_per_second": "6.3008477108",
                "kilometers_per_hour": "22683.051758998",
                "miles_per_hour": "14094.3662443619"
            },
            "miss_distance": {
                "astronomical": "0.0731651109",
                "lunar": "28.4612281401",
                "kilometers": "10945344.748953783",
                "miles": "6801121.8547888854"
            },
            "orbiting_body": "Earth"
        }
    ],
    "orbital_data": {
        "orbit_id": "3",
        "orbit_determination_date": "2017-04-06 08:41:00",
        "first_observation_date": "2014-04-23",
        "last_observation_date": "2014-04-25",
        "data_arc_in_days": 2,
        "observations_used": 20,
        "orbit_uncertainty": "9",
        "minimum_orbit_intersection": ".0673943",
        "jupiter_tisserand_invariant": "3.347",
        "epoch_osculation": "2456771.5",
        "eccentricity": ".5462831031695665",
        "semi_major_axis": "2.33984047259155",
        "inclination": ".9667590930050821",
        "ascending_node_longitude": "137.6150207350071",
        "orbital_period": "1307.307642343909",
        "perihelion_distance": "1.061625158302493",
        "perihelion_argument": "38.82460212227701",
        "aphelion_distance": "3.618055786880607",
        "perihelion_time": "2456736.119611794289",
        "mean_anomaly": "9.742878677905942",
        "mean_motion": ".2753751208510842",
        "equinox": "J2000",
        "orbit_class": {
            "orbit_class_type": "AMO",
            "orbit_class_description": "Near-Earth asteroid orbits similar to that of 1221 Amor",
            "orbit_class_range": "1.017 AU < q (perihelion) < 1.3 AU"
        }
    },
    "is_sentry_object": false
}